{
  "norad_id": 59457,
  "name": "STARLINK-31319",
  "history": [
    {
      "epoch": "2026-03-28T20:18:22.058496Z",
      "apogee_km": 483.82297211239256,
      "perigee_km": 482.38471880636735,
      "latitude_deg": 3.344144276833447e-05,
      "longitude_deg": 151.91964633827413,
      "height_km": 482.8775335507745,
      "semi_major_axis_km": 6861.24084545938,
      "eccentricity": 0.00010481,
      "inclination_deg": 43.0017,
      "raan_deg": 282.7722,
      "arg_perigee_deg": 270.2312,
      "mean_anomaly_deg": 89.842,
      "mean_motion_rev_day": 15.27561716
    },
    {
      "epoch": "2026-03-28T23:26:40.905312Z",
      "apogee_km": 484.0721915206386,
      "perigee_km": 482.12085670638135,
      "latitude_deg": 1.175862525292865e-05,
      "longitude_deg": 103.9722983338606,
      "height_km": 482.62948158502763,
      "semi_major_axis_km": 6861.23352411351,
      "eccentricity": 0.0001422,
      "inclination_deg": 43.0033,
      "raan_deg": 282.0323,
      "arg_perigee_deg": 284.4903,
      "mean_anomaly_deg": 75.5791,
      "mean_motion_rev_day": 15.27564161
    },
    {
      "epoch": "2026-03-29T22:59:00.176352Z",
      "apogee_km": 484.0315699173816,
      "perigee_km": 482.04045750880323,
      "latitude_deg": -2.806891781324486e-05,
      "longitude_deg": 104.38646083974572,
      "height_km": 482.7827600679736,
      "semi_major_axis_km": 6861.173013713093,
      "eccentricity": 0.0001451,
      "inclination_deg": 43.0009,
      "raan_deg": 276.4935,
      "arg_perigee_deg": 271.7328,
      "mean_anomaly_deg": 88.3357,
      "mean_motion_rev_day": 15.27584369
    },
    {
      "epoch": "2026-03-29T22:59:00.177216Z",
      "apogee_km": 484.0315699173816,
      "perigee_km": 482.04045750880323,
      "latitude_deg": -2.806891781180022e-05,
      "longitude_deg": 104.38645722988741,
      "height_km": 482.78276006797563,
      "semi_major_axis_km": 6861.173013713093,
      "eccentricity": 0.0001451,
      "inclination_deg": 43.0009,
      "raan_deg": 276.4935,
      "arg_perigee_deg": 271.7328,
      "mean_anomaly_deg": 88.3357,
      "mean_motion_rev_day": 15.27584369
    },
    {
      "epoch": "2026-03-30T13:06:25.211232Z",
      "apogee_km": 483.70371939997676,
      "perigee_km": 482.4350823364566,
      "latitude_deg": -3.57407709794317e-05,
      "longitude_deg": -111.36999518992475,
      "height_km": 483.1789352356906,
      "semi_major_axis_km": 6861.206400868216,
      "eccentricity": 9.245e-05,
      "inclination_deg": 42.9968,
      "raan_deg": 273.1714,
      "arg_perigee_deg": 238.2523,
      "mean_anomaly_deg": 121.8238,
      "mean_motion_rev_day": 15.27573219
    },
    {
      "epoch": "2026-03-30T19:23:03.083712Z",
      "apogee_km": 483.62688075508595,
      "perigee_km": 482.506171771106,
      "latitude_deg": 3.3897457899895915e-05,
      "longitude_deg": 152.73638248296388,
      "height_km": 483.0140619841816,
      "semi_major_axis_km": 6861.203526263096,
      "eccentricity": 8.167e-05,
      "inclination_deg": 42.9979,
      "raan_deg": 271.6933,
      "arg_perigee_deg": 252.1635,
      "mean_anomaly_deg": 107.9128,
      "mean_motion_rev_day": 15.27574179
    },
    {
      "epoch": "2026-03-31T18:55:24.298752Z",
      "apogee_km": 483.7016320728444,
      "perigee_km": 482.4391699110629,
      "latitude_deg": -1.4976538078647953e-05,
      "longitude_deg": 153.14341400969397,
      "height_km": 483.0393157547697,
      "semi_major_axis_km": 6861.207400991953,
      "eccentricity": 9.2e-05,
      "inclination_deg": 42.9979,
      "raan_deg": 266.1555,
      "arg_perigee_deg": 252.2038,
      "mean_anomaly_deg": 107.8713,
      "mean_motion_rev_day": 15.27572885
    },
    {
      "epoch": "2026-04-01T18:27:44.719776Z",
      "apogee_km": 483.9123923960833,
      "perigee_km": 482.14632817494476,
      "latitude_deg": 5.7012991074581725e-05,
      "longitude_deg": 153.5528918092496,
      "height_km": 482.82694613773117,
      "semi_major_axis_km": 6861.166360285513,
      "eccentricity": 0.0001287,
      "inclination_deg": 43.0003,
      "raan_deg": 260.6167,
      "arg_perigee_deg": 268.6402,
      "mean_anomaly_deg": 91.4303,
      "mean_motion_rev_day": 15.27586591
    },
    {
      "epoch": "2026-04-02T19:34:15.821760Z",
      "apogee_km": 483.88145092500235,
      "perigee_km": 482.31708905544474,
      "latitude_deg": -3.0596414907164035e-05,
      "longitude_deg": 129.98203245132788,
      "height_km": 482.8056204850336,
      "semi_major_axis_km": 6861.236269990223,
      "eccentricity": 0.000114,
      "inclination_deg": 42.9988,
      "raan_deg": 254.7067,
      "arg_perigee_deg": 275.1351,
      "mean_anomaly_deg": 84.937,
      "mean_motion_rev_day": 15.27563244
    },
    {
      "epoch": "2026-04-02T19:34:15.822624Z",
      "apogee_km": 483.8813823126402,
      "perigee_km": 482.3171576678069,
      "latitude_deg": -3.1379532615182765e-05,
      "longitude_deg": 129.98202800628664,
      "height_km": 482.80562662529354,
      "semi_major_axis_km": 6861.236269990223,
      "eccentricity": 0.00011399,
      "inclination_deg": 42.9988,
      "raan_deg": 254.7067,
      "arg_perigee_deg": 275.1351,
      "mean_anomaly_deg": 84.937,
      "mean_motion_rev_day": 15.27563244
    },
    {
      "epoch": "2026-04-03T17:32:26.553696Z",
      "apogee_km": 484.23085175439064,
      "perigee_km": 481.8308152462332,
      "latitude_deg": -5.281817717595076e-07,
      "longitude_deg": 154.36448681970256,
      "height_km": 482.455135930884,
      "semi_major_axis_km": 6861.167833500312,
      "eccentricity": 0.0001749,
      "inclination_deg": 43.0022,
      "raan_deg": 249.5361,
      "arg_perigee_deg": 287.103,
      "mean_anomaly_deg": 72.963,
      "mean_motion_rev_day": 15.27586099
    },
    {
      "epoch": "2026-04-04T10:48:09.930816Z",
      "apogee_km": 484.08176310167073,
      "perigee_km": 481.9944564097814,
      "latitude_deg": -4.19348808662079e-05,
      "longitude_deg": -109.3370229544125,
      "height_km": 482.61172567554223,
      "semi_major_axis_km": 6861.175109755726,
      "eccentricity": 0.00015211,
      "inclination_deg": 43.0012,
      "raan_deg": 245.4743,
      "arg_perigee_deg": 281.2344,
      "mean_anomaly_deg": 78.8336,
      "mean_motion_rev_day": 15.27583669
    },
    {
      "epoch": "2026-04-05T10:20:31.437024Z",
      "apogee_km": 484.0074495369636,
      "perigee_km": 482.22297506158884,
      "latitude_deg": 2.2263059573259683e-05,
      "longitude_deg": -108.93308998538242,
      "height_km": 482.9263692767974,
      "semi_major_axis_km": 6861.252212299276,
      "eccentricity": 0.00013004,
      "inclination_deg": 42.999,
      "raan_deg": 239.9345,
      "arg_perigee_deg": 267.774,
      "mean_anomaly_deg": 92.2963,
      "mean_motion_rev_day": 15.2755792
    },
    {
      "epoch": "2026-04-07T09:25:12.476928Z",
      "apogee_km": 484.2816939068798,
      "perigee_km": 481.77284058091936,
      "latitude_deg": 4.811396095705859e-05,
      "longitude_deg": -108.11469416345027,
      "height_km": 482.6207065026019,
      "semi_major_axis_km": 6861.164267243899,
      "eccentricity": 0.00018283,
      "inclination_deg": 42.9993,
      "raan_deg": 228.8573,
      "arg_perigee_deg": 278.413,
      "mean_anomaly_deg": 81.6515,
      "mean_motion_rev_day": 15.2758729
    },
    {
      "epoch": "2026-04-08T15:14:10.815360Z",
      "apogee_km": 484.2024168778953,
      "perigee_km": 481.97498856576385,
      "latitude_deg": -3.7761379843708495e-05,
      "longitude_deg": 156.40032567726857,
      "height_km": 482.6080124049895,
      "semi_major_axis_km": 6861.225702721829,
      "eccentricity": 0.00016232,
      "inclination_deg": 42.9986,
      "raan_deg": 221.84,
      "arg_perigee_deg": 283.3642,
      "mean_anomaly_deg": 76.7028,
      "mean_motion_rev_day": 15.27566773
    },
    {
      "epoch": "2026-04-09T14:46:31.548288Z",
      "apogee_km": 483.8820698142936,
      "perigee_km": 482.1708956417024,
      "latitude_deg": -5.423503618948523e-05,
      "longitude_deg": 156.81170181411855,
      "height_km": 482.53571962032566,
      "semi_major_axis_km": 6861.163482727998,
      "eccentricity": 0.0001247,
      "inclination_deg": 42.9994,
      "raan_deg": 216.3045,
      "arg_perigee_deg": 288.2021,
      "mean_anomaly_deg": 71.8694,
      "mean_motion_rev_day": 15.27587552
    },
    {
      "epoch": "2026-04-10T00:11:27.759552Z",
      "apogee_km": 484.0279562479345,
      "perigee_km": 482.03890294039593,
      "latitude_deg": 1.8200416451483153e-05,
      "longitude_deg": 12.971178792095117,
      "height_km": 482.55980971448315,
      "semi_major_axis_km": 6861.170429594165,
      "eccentricity": 0.00014495,
      "inclination_deg": 42.997,
      "raan_deg": 214.0848,
      "arg_perigee_deg": 284.5603,
      "mean_anomaly_deg": 75.5088,
      "mean_motion_rev_day": 15.27585232
    },
    {
      "epoch": "2026-04-11T13:51:13.585248Z",
      "apogee_km": 483.86323552235535,
      "perigee_km": 482.29201737289895,
      "latitude_deg": 3.9083296499177544e-05,
      "longitude_deg": 157.6247040628819,
      "height_km": 482.87565812980034,
      "semi_major_axis_km": 6861.214626447627,
      "eccentricity": 0.0001145,
      "inclination_deg": 42.9995,
      "raan_deg": 205.226,
      "arg_perigee_deg": 268.4239,
      "mean_anomaly_deg": 91.6482,
      "mean_motion_rev_day": 15.27570472
    },
    {
      "epoch": "2026-04-13T06:39:18.504000Z",
      "apogee_km": 484.23848393591925,
      "perigee_km": 481.94847965031477,
      "latitude_deg": -2.5319408048476335e-05,
      "longitude_deg": -105.67541299667354,
      "height_km": 482.8707818894095,
      "semi_major_axis_km": 6861.230481793116,
      "eccentricity": 0.00016688,
      "inclination_deg": 43.0006,
      "raan_deg": 195.6221,
      "arg_perigee_deg": 269.9845,
      "mean_anomaly_deg": 90.0815,
      "mean_motion_rev_day": 15.27565177
    }
  ]
}